{
  "type": "FeatureCollection",
  "features": [
    {
      "type": "Feature",
      "properties": {
        "norad_id": 32314,
        "name": "FENGYUN 1C DEB",
        "group": "fengyun-1c-debris",
        "lat": -44.54137718472498,
        "lon": -87.16937645989051,
        "alt_km": 645.5676423844907,
        "timestamp": "2025-12-21T16:47:55.024611+00:00",
        "meta_object_name": "FENGYUN 1C DEB",
        "meta_object_id": "1999-025CXF",
        "meta_epoch": "2025-12-21T06:03:37.298592",
        "meta_mean_motion": 14.79709191,
        "meta_eccentricity": 0.0148738,
        "meta_inclination": 98.8639,
        "meta_ra_of_asc_node": 101.1715,
        "meta_arg_of_pericenter": 130.9368,
        "meta_mean_anomaly": 230.4828,
        "meta_ephemeris_type": 0,
        "meta_classification_type": "U",
        "meta_norad_cat_id": 32314,
        "meta_element_set_no": 999,
        "meta_rev_at_epoch": 97556,
        "meta_bstar": 0.0010909,
        "meta_mean_motion_dot": 9.834e-05,
        "meta_mean_motion_ddot": 0,
        "tle_line1": "1 32314U 99025CXF 25355.25251503  .00009834  00000+0  10909-2 0  9995",
        "tle_line2": "2 32314  98.8639 101.1715 0148738 130.9368 230.4828 14.79709191975562"
      },
      "geometry": {
        "type": "Point",
        "coordinates": [
          -87.16937645989051,
          -44.54137718472498
        ]
      }
    },
    {
      "type": "Feature",
      "properties": {
        "norad_id": 32316,
        "name": "FENGYUN 1C DEB",
        "group": "fengyun-1c-debris",
        "lat": 61.182411966478654,
        "lon": 5.578340729839813,
        "alt_km": 722.6442368765393,
        "timestamp": "2025-12-21T16:47:55.024621+00:00",
        "meta_object_name": "FENGYUN 1C DEB",
        "meta_object_id": "1999-025CXH",
        "meta_epoch": "2025-12-19T13:56:17.244096",
        "meta_mean_motion": 14.51952704,
        "meta_eccentricity": 0.0026401,
        "meta_inclination": 99.5285,
        "meta_ra_of_asc_node": 20.9536,
        "meta_arg_of_pericenter": 308.626,
        "meta_mean_anomaly": 202.9731,
        "meta_ephemeris_type": 0,
        "meta_classification_type": "U",
        "meta_norad_cat_id": 32316,
        "meta_element_set_no": 999,
        "meta_rev_at_epoch": 95876,
        "meta_bstar": 0.001205,
        "meta_mean_motion_dot": 4.831e-05,
        "meta_mean_motion_ddot": 0,
        "tle_line1": "1 32316U 99025CXH 25353.58075514  .00004831  00000+0  12050-2 0  9998",
        "tle_line2": "2 32316  99.5285  20.9536 0026401 308.6260 202.9731 14.51952704958765"
      },
      "geometry": {
        "type": "Point",
        "coordinates": [
          5.578340729839813,
          61.182411966478654
        ]
      }
    },
    {
      "type": "Feature",
      "properties": {
        "norad_id": 32320,
        "name": "FENGYUN 1C DEB",
        "group": "fengyun-1c-debris",
        "lat": -7.30200654896928,
        "lon": 33.25201385256004,
        "alt_km": 813.6912944076848,
        "timestamp": "2025-12-21T16:47:55.024631+00:00",
        "meta_object_name": "FENGYUN 1C DEB",
        "meta_object_id": "1999-025CXM",
        "meta_epoch": "2025-12-19T20:27:32.982912",
        "meta_mean_motion": 14.3617206,
        "meta_eccentricity": 0.00563043,
        "meta_inclination": 100.3749,
        "meta_ra_of_asc_node": 212.377,
        "meta_arg_of_pericenter": 28.0804,
        "meta_mean_anomaly": 332.3393,
        "meta_ephemeris_type": 0,
        "meta_classification_type": "U",
        "meta_norad_cat_id": 32320,
        "meta_element_set_no": 999,
        "meta_rev_at_epoch": 62275,
        "meta_bstar": 0.00057587,
        "meta_mean_motion_dot": 1.65e-05,
        "meta_mean_motion_ddot": 0,
        "tle_line1": "1 32320U 99025CXM 25353.85246508  .00001650  00000+0  57587-3 0  9997",
        "tle_line2": "2 32320 100.3749 212.3770 0056304  28.0804 332.3393 14.36172060622756"
      },
      "geometry": {
        "type": "Point",
        "coordinates": [
          33.25201385256004,
          -7.30200654896928
        ]
      }
    },
    {
      "type": "Feature",
      "properties": {
        "norad_id": 32322,
        "name": "FENGYUN 1C DEB",
        "group": "fengyun-1c-debris",
        "lat": -49.3473604290941,
        "lon": 46.329583106258646,
        "alt_km": 1420.945908806837,
        "timestamp": "2025-12-21T16:47:55.024642+00:00",
        "meta_object_name": "FENGYUN 1C DEB",
        "meta_object_id": "1999-025CXP",
        "meta_epoch": "2025-12-21T10:17:00.183840",
        "meta_mean_motion": 13.34155768,
        "meta_eccentricity": 0.0419574,
        "meta_inclination": 98.3703,
        "meta_ra_of_asc_node": 235.9789,
        "meta_arg_of_pericenter": 75.736,
        "meta_mean_anomaly": 288.998,
        "meta_ephemeris_type": 0,
        "meta_classification_type": "U",
        "meta_norad_cat_id": 32322,
        "meta_element_set_no": 999,
        "meta_rev_at_epoch": 60495,
        "meta_bstar": 0.0012702,
        "meta_mean_motion_dot": 1.01e-05,
        "meta_mean_motion_ddot": 0,
        "tle_line1": "1 32322U 99025CXP 25355.42847435  .00001010  00000+0  12702-2 0  9999",
        "tle_line2": "2 32322  98.3703 235.9789 0419574  75.7360 288.9980 13.34155768604956"
      },
      "geometry": {
        "type": "Point",
        "coordinates": [
          46.329583106258646,
          -49.3473604290941
        ]
      }
    },
    {
      "type": "Feature",
      "properties": {
        "norad_id": 32323,
        "name": "FENGYUN 1C DEB",
        "group": "fengyun-1c-debris",
        "lat": -75.9844580249581,
        "lon": 175.45628160688926,
        "alt_km": 922.7678353539986,
        "timestamp": "2025-12-21T16:47:55.024652+00:00",
        "meta_object_name": "FENGYUN 1C DEB",
        "meta_object_id": "1999-025CXQ",
        "meta_epoch": "2025-12-19T15:19:13.533312",
        "meta_mean_motion": 13.96612746,
        "meta_eccentricity": 0.015623,
        "meta_inclination": 98.5704,
        "meta_ra_of_asc_node": 136.3682,
        "meta_arg_of_pericenter": 190.9743,
        "meta_mean_anomaly": 168.7999,
        "meta_ephemeris_type": 0,
        "meta_classification_type": "U",
        "meta_norad_cat_id": 32323,
        "meta_element_set_no": 999,
        "meta_rev_at_epoch": 60366,
        "meta_bstar": 0.0022503,
        "meta_mean_motion_dot": 3.415e-05,
        "meta_mean_motion_ddot": 0,
        "tle_line1": "1 32323U 99025CXQ 25353.63835108  .00003415  00000+0  22503-2 0  9996",
        "tle_line2": "2 32323  98.5704 136.3682 0156230 190.9743 168.7999 13.96612746603662"
      },
      "geometry": {
        "type": "Point",
        "coordinates": [
          175.45628160688926,
          -75.9844580249581
        ]
      }
    },
    {
      "type": "Feature",
      "properties": {
        "norad_id": 32324,
        "name": "FENGYUN 1C DEB",
        "group": "fengyun-1c-debris",
        "lat": 34.181101392891236,
        "lon": -75.47723266112145,
        "alt_km": 889.7460138490478,
        "timestamp": "2025-12-21T16:47:55.024662+00:00",
        "meta_object_name": "FENGYUN 1C DEB",
        "meta_object_id": "1999-025CXR",
        "meta_epoch": "2025-12-21T05:53:20.651424",
        "meta_mean_motion": 14.09160283,
        "meta_eccentricity": 0.0049697,
        "meta_inclination": 99.5332,
        "meta_ra_of_asc_node": 97.4892,
        "meta_arg_of_pericenter": 0.4064,
        "meta_mean_anomaly": 359.7136,
        "meta_ephemeris_type": 0,
        "meta_classification_type": "U",
        "meta_norad_cat_id": 32324,
        "meta_element_set_no": 999,
        "meta_rev_at_epoch": 64118,
        "meta_bstar": 0.00036776,
        "meta_mean_motion_dot": 5.97e-06,
        "meta_mean_motion_ddot": 0,
        "tle_line1": "1 32324U 99025CXR 25355.24537791  .00000597  00000+0  36776-3 0  9999",
        "tle_line2": "2 32324  99.5332  97.4892 0049697   0.4064 359.7136 14.09160283641183"
      },
      "geometry": {
        "type": "Point",
        "coordinates": [
          -75.47723266112145,
          34.181101392891236
        ]
      }
    },
    {
      "type": "Feature",
      "properties": {
        "norad_id": 32326,
        "name": "FENGYUN 1C DEB",
        "group": "fengyun-1c-debris",
        "lat": -12.443341748912836,
        "lon": 102.15311223207885,
        "alt_km": 932.0814987033718,
        "timestamp": "2025-12-21T16:47:55.024672+00:00",
        "meta_object_name": "FENGYUN 1C DEB",
        "meta_object_id": "1999-025CXT",
        "meta_epoch": "2025-12-21T01:52:21.182880",
        "meta_mean_motion": 13.69292116,
        "meta_eccentricity": 0.03867691,
        "meta_inclination": 98.4887,
        "meta_ra_of_asc_node": 283.4918,
        "meta_arg_of_pericenter": 117.0744,
        "meta_mean_anomaly": 247.0417,
        "meta_ephemeris_type": 0,
        "meta_classification_type": "U",
        "meta_norad_cat_id": 32326,
        "meta_element_set_no": 999,
        "meta_rev_at_epoch": 63296,
        "meta_bstar": 0.00039414066,
        "meta_mean_motion_dot": 5.46e-06,
        "meta_mean_motion_ddot": 0,
        "tle_line1": "1 32326U 99025CXT 25355.07802295  .00000546  00000+0  39414-3 0  9992",
        "tle_line2": "2 32326  98.4887 283.4918 0386769 117.0744 247.0417 13.69292116632961"
      },
      "geometry": {
        "type": "Point",
        "coordinates": [
          102.15311223207885,
          -12.443341748912836
        ]
      }
    }
  ]
}